#cP2024  2 22  0  0  0.00000000     577 d+D   IGS20 EXT AIUB
## 2302 345600.00000000   300.00000000 60362 0.0000000000000
+   76   G02G03G04G05G07G08G09G10G11G12G13G14G15G16G17G18G19
+        G20G21G22G23G24G25G26G27G28G29G30G31G32R01R02R03R04
+        R05R07R08R09R11R12R13R14R15R16R17R18R19R20R21R22R24
+        E02E03E04E05E07E08E09E10E11E12E13E14E15E18E19E21E24
+        E25E26E27E30E31E33E34E36  0  0  0  0  0  0  0  0  0
++         7  6  5  7  7  7  5  6  7  7  8  5  7  7  7  7  7
++         7  7  7  6  7  6  7  6  6  7  6  7  6  9  7  8  8
++         8  8  8  6  6  6  8  6  7  6  9  7  9  9  7  7  8
++         6  7  7  6  7  6  7  7  6  7  6  6  7  7  7  6  6
++         6  6  6  6  6  7  7  7  0  0  0  0  0  0  0  0  0
%c M  cc GPS ccc cccc cccc cccc cccc ccccc ccccc ccccc ccccc
%c cc cc ccc ccc cccc cccc cccc cccc ccccc ccccc ccccc ccccc
%f  1.2500000  1.025000000  0.00000000000  0.000000000000000
%f  0.0000000  0.000000000  0.00000000000  0.000000000000000
%i    0    0    0    0      0      0      0      0         0
%i    0    0    0    0      0      0      0      0         0
/* Center for Orbit Determination in Europe (CODE)          
/* Ultra-rapid GRE orbits starting year-day 24053 00 hour   
/* Observed/predicted: 24/24 hours (data used up to 053X)   
/* PCV:IGS20      OL/AL:FES2014b NONE     YN ORB:CoN CLK:BRD
*  2024  2 22 12 55  0.00000000
PG02 -17977.822562 -13808.455244 -13555.323575   -481.475750
PG03 -11897.584807 -21057.716177  10972.775264    209.193946
PG04 -10681.621222 -10777.529356  21817.381793    297.952474
PG05   6118.458286  25770.015798    924.313423   -162.759685
PG07 -25872.200356  -5379.307278  -4055.905911    -67.981727
PG08  -3305.318549 -16766.499843 -20318.772308     -0.119158
PG09 -19866.370531   1866.886887  17477.331631    100.702997
PG10  11917.306564 -10833.611114 -20844.248677      1.148981
PG11  -3656.327437  14733.323753  21821.555538   -584.288324
PG12  10318.761292  22135.374447  10234.127063   -480.464092
PG13  -7394.305208  19032.017807 -17066.472469    627.850261
PG14 -14362.138968   6694.700882 -21272.122070    332.401643
PG15   5454.636785  16863.264570 -20217.121119    130.343343
PG16    957.030242 -25568.095986   5836.004248   -357.047832
PG17 -22612.193030  12209.224421  -6595.983523    716.163375
PG18  25569.008652   4474.939417  -6054.006746   -561.081433
PG19 -20504.665355  16440.767028   1858.056053    444.212400
PG20  -1203.173791  22888.099072  13620.849399    386.544352
PG21 -13707.945050 -15229.806261 -16935.138829    134.003969
PG22 -11073.679088  15308.548163 -18357.691618     27.091938
PG23  15531.989471   2949.855742 -21350.890700    161.638487
PG24  15752.827485  15331.139460 -15603.248144   -435.807137
PG25  15517.055713  12740.956350  17180.249562    489.343916
PG26   6390.418237 -20035.361846  15854.083035    187.485011
PG27   8907.617134 -20927.034817 -13625.054907     -6.215907
PG28  18187.143532  -7649.225546  17757.387661   -139.694964
PG29  19018.001546   1235.704756  18491.452446   -606.446229
PG30 -22496.030558   3332.874953 -13807.899550   -429.232862
PG31   9467.556250 -12607.746643  21210.857708   -227.846115
PG32  21070.737120 -15369.964869  -4192.319061   -612.921031
PR01  14487.834928 -14374.269209 -15304.561519     77.826377
PR02  10776.071918 -23044.985509   1349.157031    -22.515704
PR03    274.951274 -18943.875238  17099.852764     95.014981
PR04  -9717.599143  -4567.077635  23172.059867    224.546618
PR05 -14824.135795  12211.176570  16816.371970    127.314778
PR07    156.761031  18488.987486 -17552.841553     76.383157
PR08   9919.328771   4329.012172 -23033.117807    -74.492392
PR09   -256.544829  16246.608871 -19621.150696    171.400879
PR11  17029.239977  16140.069429   9995.162482     33.515700
PR12  12483.306689   -691.829514  22253.746710     37.013315
PR13   2061.273057 -14512.972063  20853.209038    -44.606546
PR14 -11706.289968 -21872.426667   5979.781519     26.082942
PR15 -17038.681349 -15254.006718 -11291.456424     81.973185
PR16 -12515.562703    375.607216 -22226.221705     23.467412
PR17  -8052.990080  -9623.007348 -22192.564112     63.311229
PR18 -22120.034027  -4227.045802 -12017.989889    128.669273
PR19 -25304.682444   1805.907651   2682.637860   -266.765119
PR20 -12582.013960   9266.609006  20187.736964   -108.683272
PR21   8271.806067   9560.180285  22160.002123    -78.988305
PR22  22523.473354   4628.050422  11051.732889    109.343452
PR24  11565.916666 -10285.872600 -20259.290075    -44.953439
PE02  -3594.118113 -29244.565726   2705.522537    105.490370
PE03   3851.347524 -21686.701507  19778.890207    -95.525604
PE04  14897.672982   9144.791630 -23878.027755   -333.249557
PE05  20048.284190 -21368.920641   4205.047522   4722.461530
PE07 -24596.495032   8199.847738  14281.260704   -105.119350
PE08 -14229.105639  -9649.920511  24096.847147   -227.882363
PE09  24523.243230  -8192.672019 -14417.344512   -345.246726
PE10  28094.509059   9306.687008   -418.097415   -603.907700
PE11  27512.764001   2194.717961 -10672.602508   3230.602288
PE12  24355.411934  14360.648213   8720.633594   -917.322543
PE13 -27714.899430  -2684.052484  10072.151978    -20.267626
PE14  24045.201497  -3310.512126  14778.018619 999999.999999
PE15 -24080.329103 -14535.276071  -9235.463609    -87.242352
PE18 -17534.063496  -8588.581640 -20748.522869 999999.999999
PE19  -6170.822760  22232.803874 -18534.272509   -566.069078
PE21  -9030.172828  21194.261366 -18597.655789   -580.327261
PE24  17077.585958    111.134031  24155.703317   -612.357534
PE25   9260.552807 -20863.919228  18835.787428      1.224721
PE26 -14543.033035  11047.149176  23304.799944    376.178735
PE27 -16975.110110    425.268238 -24250.592950   -281.114021
PE30 -14722.974769 -20568.251910 -15378.144330    -23.241509
PE31  14823.091813  20374.725970  15538.573066    -16.589391
PE33   5759.903317  17632.903520  23073.131157      7.979985
PE34  -6410.430883 -17688.964108 -22850.828177    -96.056945
PE36  15085.841971 -10541.786650 -23172.031095   -189.485202
EOF
